STARLINK-3043           
1 49179U 21082BB  23245.76249850  .00001321  00000+0  11844-3 0  9997
2 49179  70.0005  51.3892 0003053 271.6918  88.3892 14.98338770109319
STARLINK-3050           
1 49180U 21082BC  23245.81279716  .00002484  00000+0  21584-3 0  9992
2 49180  69.9999  71.2686 0002973 271.7789  88.3029 14.98342126110009
STARLINK-3059           
1 49181U 21082BD  23245.85059357  .00005818  00000+0  49535-3 0  9994
2 49181  69.9995  91.1820 0002862 269.1033  90.9798 14.98301901109531
STARLINK-3151           
1 49408U 21104A   23245.82964991  .00001436  00000+0  10827-3 0  9991
2 49408  53.2190  34.0527 0001392 108.4835 251.6309 15.08845704 99918
STARLINK-3075           
1 49409U 21104B   23245.71189108  .00000529  00000+0  51332-4 0  9998
2 49409  53.2182  34.5746 0001168  84.6079 275.5046 15.08840935 99907
STARLINK-3147           
1 49410U 21104C   23245.90420531  .00006446  00000+0  42256-3 0  9997
2 49410  53.2187  33.7161 0001217  93.1065 267.0066 15.08855058101017
STARLINK-3162           
1 49411U 21104D   23245.83057030  .00001395  00000+0  10573-3 0  9995
2 49411  53.2193  24.0420 0001500  89.9631 270.1533 15.08842934100059
STARLINK-3144           
1 49412U 21104E   23245.84068487  .00003478  00000+0  23644-3 0  9992
2 49412  53.2174  33.9935 0001124  85.8459 274.2662 15.08853107 99929
STARLINK-3157           
1 49413U 21104F   23246.09280878  .00001340  00000+0  10229-3 0  9992
2 49413  53.2183  22.8742 0001249  79.5236 280.5897 15.08839933101187
STARLINK-3146           
1 49414U 21104G   23245.70085095  .00000349  00000+0  40022-4 0  9997
2 49414  53.2174  34.6203 0001218  92.6540 267.4591 15.08839877 99897
STARLINK-3159           
1 49415U 21104H   23245.75697352  .00001118  00000+0  88299-4 0  9991
2 49415  53.2186  24.3740 0001419  84.4264 275.6890 15.08839842100032
STARLINK-3133           
1 49416U 21104J   23245.82596995  .00004336  00000+0  29024-3 0  9996
2 49416  53.2178  34.0555 0001338  89.2555 270.8591 15.08851479101005
STARLINK-3154           
1 49417U 21104K   23246.08474166  .00002069  00000+0  14178-3 0  9996
2 49417  53.2157  22.8973 0001086  71.0118 289.0992 15.10486555101195
STARLINK-3111           
1 49418U 21104L   23245.82228893  .00000739  00000+0  64500-4 0  9999
2 49418  53.2185  34.0769 0001362  88.3341 271.7807 15.08844268 99905
STARLINK-3120           
1 49419U 21104M   23245.81124568  .00004361  00000+0  29175-3 0  9996
2 49419  53.2185  34.1266 0001467  76.0233 284.0922 15.08861952100984
STARLINK-3110           
1 49420U 21104N   23245.81860733  .00001369  00000+0  10406-3 0  9991
2 49420  53.2180  34.0926 0001303  97.7935 262.3205 15.08847219 99903
STARLINK-3112           
1 49421U 21104P   23246.25001157  .00068375  00000+0  40870-2 0  9995
2 49421  53.2162  32.1168 0001341  84.1383 200.1704 15.10461597101058
STARLINK-3161           
1 49422U 21104Q   23245.81492702  .00001011  00000+0  81616-4 0  9996
2 49422  53.2184  34.1093 0001463  88.6494 271.4666 15.08845079101011
STARLINK-3149           
1 49423U 21104R   23245.79653032  .00001501  00000+0  11237-3 0  9994
2 49423  53.2190  34.1945 0001307  81.3314 278.7826 15.08844417100992
STARLINK-3135           
1 49424U 21104S   23245.80756942  .00001756  00000+0  12834-3 0  9997
2 49424  53.2179  34.1436 0001380  84.5859 275.5290 15.08848126100996
STARLINK-3139           
1 49425U 21104T   23245.79381103  .00001862  00000+0  13505-3 0  9993
2 49425  53.2193  34.2156 0001425  85.0013 275.1141 15.08843178 99913
STARLINK-3114           
1 49426U 21104U   23245.80021100  .00001974  00000+0  14206-3 0  9997
2 49426  53.2186  34.1769 0001463  85.8973 274.2186 15.08848417 99909
STARLINK-3131           
1 49427U 21104V   23245.85637286  .00000172  00000+0  28894-4 0  9999
2 49427  53.2201  33.9333 0001312  79.3336 280.7804 15.08836648101014
STARLINK-3121           
1 49428U 21104W   23246.10938051  .00091422  00000+0  55707-2 0  9992
2 49428  53.2163  32.7801 0002041 100.9291 259.1931 15.09604963101037
STARLINK-3138           
1 49430U 21104Y   23245.71925578 -.00000052  00000+0  14806-4 0  9998
2 49430  53.2186  34.5440 0001237  78.6737 281.4394 15.08837344 99909
STARLINK-3153           
1 49431U 21104Z   23245.83704030  .00000699  00000+0  62001-4 0  9996
2 49431  53.2181  34.2679 0001216  94.0760 266.0371 15.08841796 99912
STARLINK-3158           
1 49432U 21104AA  23245.81680304  .00006859  00000+0  44837-3 0  9992
2 49432  53.2186  24.1015 0001348  88.7234 271.3913 15.08858051100053
STARLINK-3079           
1 49433U 21104AB  23245.68429184  .00001584  00000+0  11755-3 0  9998
2 49433  53.2186  14.6994 0001388  86.3306 273.7845 15.08843429101269
STARLINK-3134           
1 49434U 21104AC  23246.11491178 -.00089674  00000+0 -58127-2 0  9991
2 49434  53.2182  32.7826 0001342  91.1698 268.9448 15.08042598101048
STARLINK-3117           
1 49435U 21104AD  23245.68893016  .00000768  00000+0  66321-4 0  9992
2 49435  53.2172  14.6734 0001525  90.0968 270.0199 15.08840210100173
STARLINK-3049           
1 49436U 21104AE  23245.68796577  .00001726  00000+0  12645-3 0  9991
2 49436  53.2190  14.6810 0001293  84.2969 275.8171 15.08847030100177
STARLINK-3130           
1 49437U 21104AF  23246.07805733  .00000201  00000+0  30746-4 0  9991
2 49437  53.2183  12.9314 0001356  86.3523 273.7624 15.08832774101304
STARLINK-3044           
1 49438U 21104AG  23245.80300211  .00001180  00000+0  92193-4 0  9994
2 49438  53.2179  14.0990 0001554  92.7506 267.3664 15.08840513100194
STARLINK-3108           
1 49439U 21104AH  23245.65948702  .00001079  00000+0  85869-4 0  9990
2 49439  53.2178  14.8193 0001264  77.8048 282.3085 15.08852897100170
STARLINK-3105           
1 49440U 21104AJ  23245.87196683  .00007624  00000+0  49631-3 0  9997
2 49440  53.2173  13.8570 0001334  88.1618 271.9527 15.08858691100208
STARLINK-3128           
1 49441U 21104AK  23245.78732540  .00010519  00000+0  67759-3 0  9994
2 49441  53.2176  14.2340 0001246  87.8067 272.3068 15.08861403100196
STARLINK-3098           
1 49442U 21104AL  23246.06701365  .00002077  00000+0  14857-3 0  9999
2 49442  53.2197  12.9815 0001770  88.7551 271.3644 15.08837238101315
STARLINK-3136           
1 49443U 21104AM  23245.78364530  .00001702  00000+0  12497-3 0  9999
2 49443  53.2182  14.2503 0001420  96.9229 263.1924 15.08845372100197
STARLINK-3126           
1 49444U 21104AN  23246.06429980 -.00000477  00000+0 -11899-4 0  9999
2 49444  53.2185  13.0031 0001802  90.0586 270.0612 15.08830740101307
STARLINK-3122           
1 49445U 21104AP  23245.68462067 -.00000617  00000+0 -21932-4 0  9995
2 49445  53.2177  24.7460 0001297  83.2958 276.8181 15.07214988100032
STARLINK-3099           
1 49446U 21104AQ  23245.79468414  .00002056  00000+0  14721-3 0  9994
2 49446  53.2179  14.1986 0001519  91.1244 268.9922 15.08846640100193
STARLINK-3115           
1 49447U 21104AR  23245.67232497 -.00003510  00000+0 -20243-3 0  9996
2 49447  53.2185  24.7495 0001220  97.0534 263.0597 15.08860012100035
STARLINK-3097           
1 49448U 21104AS  23245.75425375 -.00000517  00000+0 -14373-4 0  9997
2 49448  53.2175  24.4298 0001764  73.5359 286.5827 15.08842986100047
STARLINK-3137           
1 49449U 21104AT  23245.80112759  .00002002  00000+0  14378-3 0  9996
2 49449  53.2186  24.1722 0001350  92.2371 267.8776 15.08847316101130
STARLINK-3127           
1 49450U 21104AU  23245.81216885  .00002430  00000+0  17065-3 0  9995
2 49450  53.2190  24.1578 0001609  98.4222 261.6953 15.08850160100315
STARLINK-3125           
1 49451U 21104AV  23245.79744870  .00002662  00000+0  18525-3 0  9992
2 49451  53.2188  24.1884 0001363  86.6990 273.4158 15.08848223100057
STARLINK-3150           
1 49452U 21104AW  23245.78641005  .00001197  00000+0  93284-4 0  9996
2 49452  53.2185  24.2677 0001247  88.7066 271.4069 15.08846952100050
STARLINK-3129           
1 49453U 21104AX  23245.79841655  .00006081  00000+0  39966-3 0  9994
2 49453  53.2183  24.2718 0001068  96.7975 263.3138 15.08856878101128
STARLINK-3160           
1 49454U 21104AY  23245.66129134  .00002783  00000+0  19283-3 0  9997
2 49454  53.2165  24.7975 0001473  91.5411 268.5750 15.08845165100030
STARLINK-3145           
1 49455U 21104AZ  23245.77904552  .00002447  00000+0  17173-3 0  9998
2 49455  53.2188  24.2714 0000827  89.0802 271.0285 15.08847101100056
STARLINK-3124           
1 49456U 21104BA  23245.79104826  .00001611  00000+0  11928-3 0  9991
2 49456  53.2187  24.2645 0001334  87.5103 272.6042 15.08850633101121
STARLINK-3132           
1 49457U 21104BB  23245.71008908  .00002798  00000+0  19381-3 0  9996
2 49457  53.2182  24.5898 0001345  77.5952 282.5191 15.08844177101113
STARLINK-3156           
1 49458U 21104BC  23245.71648751  .00000484  00000+0  48472-4 0  9997
2 49458  53.2174  24.5513 0001121 100.0301 260.0818 15.08845581100049
STARLINK-3141           
1 49459U 21104BD  23245.63921486  .00000882  00000+0  73493-4 0  9991
2 49459  53.2176  24.9035 0001322  65.0953 295.0177 15.08839996100039
STARLINK-3140           
1 49460U 21104BE  23245.63553711 -.00000427  00000+0 -87577-5 0  9991
2 49460  53.2177  24.9171 0001449  92.5376 267.5782 15.08834495100021
STARLINK-3219           
1 49724U 21115A   23245.88282269 -.00073484  00000+0 -47264-2 0  9999
2 49724  53.2161 313.8133 0001251  80.3655 279.7478 15.08218322 97938
STARLINK-3218           
1 49725U 21115B   23245.99160251 -.00002422  00000+0 -13419-3 0  9998
2 49725  53.2156 313.4219 0001720  91.4940 268.6249 15.08823344 97956
STARLINK-3237           
1 49726U 21115C   23245.74408120  .00009993  00000+0  64462-3 0  9994
2 49726  53.2175 324.4279 0001114 104.2543 255.8573 15.08863104 97771
STARLINK-3242           
1 49727U 21115D   23245.94648420  .00004923  00000+0  32705-3 0  9999
2 49727  53.2166 323.5190 0001203  88.5043 271.6087 15.08854027 97817
